ONEWEB-0275             
1 48993U 21060AC  25256.82848689  .00000058  00000+0  11930-3 0  9994
2 48993  87.8980 283.8573 0001822  89.9844 270.1496 13.16593945203196
ONEWEB-0276             
1 48994U 21060AD  25256.78573756 -.00000040  00000+0 -13845-3 0  9990
2 48994  87.8983 283.8632 0001842  97.9008 262.2332 13.16595632203207
ONEWEB-0277             
1 48995U 21060AE  25256.79839570 -.00000101  00000+0 -29903-3 0  9991
2 48995  87.8977 283.8934 0001521  88.5119 271.6186 13.16594818203193
ONEWEB-0278             
1 48996U 21060AF  25256.78889397 -.00000054  00000+0 -17559-3 0  9994
2 48996  87.8984 283.8591 0001982  98.7653 261.3703 13.16596424203329
ONEWEB-0279             
1 48997U 21060AG  25256.79680451 -.00000330  00000+0 -89634-3 0  9996
2 48997  87.8979 283.8527 0001631  85.3274 274.8044 13.16594238203255
ONEWEB-0280             
1 48998U 21060AH  25256.81186443 -.00000110  00000+0 -32112-3 0  9997
2 48998  87.8982 283.8581 0001671 102.2566 257.8752 13.16592431203190
ONEWEB-0281             
1 48999U 21060AJ  25256.81741278 -.00000003  00000+0 -42679-4 0  9992
2 48999  87.8980 283.8538 0001970  89.2585 270.8771 13.16593360203264
ONEWEB-0282             
1 49000U 21060AK  25256.77148881  .00000029  00000+0  43099-4 0  9995
2 49000  87.8983 283.8729 0001717  94.9696 265.1631 13.16595149203234
